#dP2022  8 30  0  0  0.00000000      97 __u+U IGS14 FIT  IAC
## 2225 172800.00000000   900.00000000 59821 0.0000000000000
+  117   C06C07C08C09C10C11C12C13C14C16C19C20C21C22C23C24C25
+        C26C27C28C29C30C32C33C34C35C36C37C38C39C40C41C42C43
+        C44C45C46E01E02E03E04E05E07E08E09E10E11E12E13E14E15
+        E18E19E21E24E25E26E27E30E31E33E34E36G01G02G03G04G05
+        G06G07G08G09G10G11G12G13G14G15G16G17G18G19G20G21G22
+        G23G24G25G26G27G28G29G30G31G32J02J03R01R02R03R04R05
+        R07R08R09R11R12R13R14R15R17R18R19R20R21R24R25  0  0
++         7  7  7  7  7  6  7  7  6  7  6  6  5  6  5  5  6
++         6  5  5  6  5  5  5  5  6  6  6  6  6  6  6  6  6
++         6  6  6  4  4  4  4  4  4  4  4  4  4  4  4  4  4
++         5  4  4  4  4  4  4  4  4  4  4  4  3  4  3  4  4
++         3  4  3  3  3  3  3  4  3  4  4  3  3  3  4  3  3
++         4  4  3  3  3  4  3  3  3  3  9  9  7  6  6  6  6
++         6  6  6  8  6  7  6  6  6  6  7  6  6  6  9  0  0
%c M  cc GPS ccc cccc cccc cccc cccc ccccc ccccc ccccc ccccc
%c cc cc ccc ccc cccc cccc cccc cccc ccccc ccccc ccccc ccccc
%f  1.2500000  1.025000000  0.00000000000  0.000000000000000
%f  0.0000000  0.000000000  0.00000000000  0.000000000000000
%i    0    0    0    0      0      0      0      0         0
%i    0    0    0    0      0      0      0      0         0
/* INFORMATION & ANALYSIS CENTER (IAC)            FINAL DATA
/* S/V CLOCKS ARE ALIGNED TO GNSS TIME                      
/* G:C1WC2W R:C1PC2P E:C1XC5X C:C2IC6I J:C1CC2S             
/* PCV:IGS14_2218 OL/AL:FES2004  NONE     YN ORB:CoN CLK:CoN
*  2022 08 30 17 15  0.00000000
PC06 -15640.346744  38565.518193   5958.042947    727.292112
PC07  -2943.742103  32390.504811  26954.170745    -73.730803
PC08 -14272.282044  20438.941470 -34058.948278    457.223155
PC09  -9786.245183  37964.544896  15196.578478   -878.885413
PC10   3985.455491  35467.035534  23118.489361    102.679691
PC11   -250.661966  23985.343753 -14232.446328   -438.286187
PC12 -12367.751534  24898.204271   2608.048907   -534.639662
PC13  -6377.568729  22459.512495 -35028.114416     67.041419
PC14  11367.938262  23994.071057  -8671.742705    621.535416
PC16 -17674.902609  38031.639854   2720.695558    140.594000
PC19 -17596.514108 -21638.049725   -552.237624   -544.706322
PC20  -4739.539255 -22864.752883  15263.569091    354.423527
PC21 -11883.870596  10406.051823 -22997.117744   -293.341742
PC22 -20846.326630  -7828.665607 -16810.821297   -403.981380
PC23  27175.222425    759.299058   6305.653998   -967.856265
PC24  -6392.158737  16562.772508  21534.388769   -971.089563
PC25  16211.547710  11537.802544  19553.999952   -685.375917
PC26 -22328.026431  12122.457966  11576.226961     -0.513226
PC27  16330.383559 -19943.451946 -10722.546237     13.318212
PC28  17329.252572  -2495.229276 -21727.370827      7.283683
PC29  -8549.676302 -17262.806562  20180.416428      6.882075
PC30   5490.808193 -26707.188081   5972.123136    502.562916
PC32  11907.945302 -10401.920781  23001.570842   -827.626115
PC33  17696.397590  21584.080203    469.656900   -539.271052
PC34  -4704.377171  26587.924583  -7031.836894   -324.575635
PC35 -17005.562308   1572.701779  22054.711670    436.264824
PC36 -15417.247947 -12159.683235 -19800.744072   -967.661979
PC37  23379.407169 -10972.359283 -10521.811003    -41.578501
PC38 -22086.978152  21274.744466 -29001.875801     20.811124
PC39 -18963.999351  37366.311601  -3573.217213     -0.335999
PC40  -6212.769960  27947.629951  31021.103860     -3.238511
PC41  21013.755476   8231.026302  16459.686269    -33.138378
PC42   3809.111999  22523.431948 -16006.421984   -206.838918
PC43   8111.315503  17945.293778 -19776.096503     11.532539
PC44 -15708.528375  20347.425573  10817.744078     34.298850
PC45 -27265.789480   -463.786718  -5973.011975    848.361021
PC46   4406.180655 -16482.412336 -22067.838887   -514.672390
PE01 -24906.139503 -14762.036767  -6158.448408   -544.628620
PE02  24983.439541  14682.105247   6008.199597    321.628585
PE03  15332.563869  17759.920297  18050.292973   -594.814018
PE04 -16674.102436   3646.396489 -24180.603808  -1104.778918
PE05   4940.579575  29163.791527   1171.936992   -148.646717
PE07   8163.431387 -23436.140628  16127.222982   -701.156813
PE08  16502.828270  -3788.722410  24276.442939   -590.273346
PE09  -8042.815269  23408.950408 -16244.731284   -641.195940
PE10 -24110.077655  16973.770527   2673.554488   -473.420945
PE11 -18975.475023  21359.770736  -7744.965521   2426.427823
PE12 -25177.150570  10026.493068  11890.340908   -142.771679
PE13  19468.047972 -21170.720953   6987.480675    430.439588
PE14  18917.004296  12505.630747 -22979.377736  -1734.442436
PE15  25112.379676  -9952.752404 -12098.148039    723.570954
PE18 -15366.019266   -970.430029  18499.511327  -1034.096645
PE19 -14280.979186 -20097.514172 -16378.071036  -4666.150651
PE21  -9899.847195 -19048.376229 -20372.222504   -754.850513
PE24 -12993.111612  12187.946627  23637.741501   -809.586088
PE25   9576.812657  19046.008425  20547.647591   -586.200394
PE26   1495.662186 -19597.611929  22126.772133  -1555.608237
PE27  11839.090928 -12808.140441 -23903.578984   -380.487912
PE30  26721.115995   1636.266339 -12616.759101   -796.730137
PE31 -26408.378750   -894.785510  13357.019962   -502.606777
PE33 -15914.853328  -7066.987841  23934.700059   -453.610406
PE34  16059.935310   6905.789825 -23894.184660     -2.026044
PE36  -2453.372296  19870.949761 -21805.213562   -424.280099
PG01  -7391.179096  18380.987987 -17826.704471    292.624976
PG02  16312.534046 -19604.148700   8393.438583   -647.621386
PG03   1443.109026  16644.512437 -20796.623125   -342.234574
PG04  -1545.267570  26336.228179  -2599.621546   -125.849288
PG05  11917.920394 -10648.218193  21059.768860    -94.820921
PG06  22776.212690  -4221.804649 -13002.718823    443.946558
PG07   9144.053917  12704.972419  21884.554976    311.247402
PG08  -6394.248713  22920.915765  11376.203004    -82.581758
PG09   7414.364832  24083.786519   8262.205692   -302.123800
PG10 -24092.052993 -11492.373540  -1233.182900     -1.108749
PG11  23675.334776 -11837.997066  -1957.113504    -13.401094
PG12   1210.895893 -16360.077661 -21175.018601   -270.517693
PG13  12852.602637 -16077.246672  16518.355767    377.986574
PG14  23125.036330  13184.811217     95.734206   -106.687032
PG15   3833.217584 -23676.905814  10639.844038    -33.043382
PG16 -17950.022778   4090.752242  19035.795491   -522.517879
PG17  12580.332199  12972.204049 -19009.802379    654.017627
PG18  -9220.961168 -11865.011943  21898.174525     64.940444
PG19  14840.244345   2367.342635 -22153.419218    204.122192
PG20  22251.845642  -3293.864611  13945.965562    490.492308
PG21 -14760.046267  19301.686382  -9189.327396    160.002208
PG22 -15008.169624   1045.679932 -21464.081662    319.040741
PG23 -19483.338570 -15972.724352   8594.654534    -38.461766
PG24   9712.532568 -20369.615381 -13982.680334    151.985288
PG25 -12158.272219 -18356.653290 -15333.911172    366.634166
PG26 -23769.444015   -900.164912  12053.525124    226.243771
PG27 -12653.556713  12543.936511  19347.996441    216.054486
PG28  23494.327181   8233.216720  -8396.738265    340.259783
PG29  -4672.364299 -24796.065823   8110.393970   -547.336948
PG30  18612.420591   4581.305907  18579.677287   -536.526581
PG31 -23802.360440   5081.732973 -11303.313744   -191.563075
PG32 -14539.290702  -9544.550308 -19978.610822   -218.758581
PJ02 -28684.549429  20927.572690  27768.416693     -4.066362
PJ03 -32500.602020  26307.529895  10789.816766     -1.096653
PR01   -885.081596 -18702.641494  17314.125130     13.969918
PR02 -11759.385104 -22674.718711   -191.063367    528.357320
PR03 -15211.321682 -12453.108868 -16249.379550     62.810184
PR04  -9885.238685   4346.891299 -23086.266199    155.794708
PR05    641.099517  18806.457986 -17201.281219     98.807216
PR07  15128.001066  11677.446702  16901.678974     40.198769
PR08   9908.669651  -4632.665342  23095.304384    -66.954176
PR09  12378.659051  10093.244769  19936.938442     74.035271
PR11  23069.316558  -4198.140238 -10046.938790     28.914379
PR12   7440.375782 -10323.974547 -22072.282458     20.628478
PR13 -10792.078743 -10213.769003 -20740.224272    -26.269384
PR14 -24398.154457  -3813.258421  -6333.558200     24.373263
PR15 -22604.110044   4456.628495  10967.968324     93.965948
PR17 -11915.459731   -379.202138  22562.555784    556.940624
PR18 -16428.032064  14541.382772  12988.951395     40.039653
PR19 -13627.970166  21456.877875  -2223.885855   -201.881735
PR20   -682.588727  16247.720503 -19636.482761    -77.488993
PR21  12562.421864  -1052.214692 -22171.982451   -329.769534
PR24   -603.888716 -16036.290441  19832.113400    111.823116
PR25  17204.305534 -14308.385195 -12228.739441     12.633879
EOF
